NORAD_CAT_ID,OBJECT_NAME,OBJECT_TYPE,EPOCH,MEAN_MOTION,ECCENTRICITY,INCLINATION,RA_OF_ASC_NODE,ARG_OF_PERICENTER,MEAN_ANOMALY,BSTAR,MEAN_MOTION_DOT,MEAN_MOTION_DDOT,TLE_LINE0,TLE_LINE1,TLE_LINE2,SEMIMAJOR_AXIS,PERIOD,APOGEE,PERIGEE,DECAYED
53901.0,STARLINK-5024,PAYLOAD,2024-01-17 19:59:28,15.08830922,0.0001243,53.2152,233.8105,74.2992,285.8137,-5.3737e-06,-3.73e-06,0.0,0 STARLINK-5024,1 53901U 22119R   24017.83296769 -.00000373  00000-0 -53737-5 0  9992,2 53901  53.2152 233.8105 0001243  74.2992 285.8137 15.08830922 73230,6917.908,95.438,540.633,538.913,0.0
53901.0,STARLINK-5024,PAYLOAD,2024-01-17 21:34:51,15.08833044,0.0001244,53.2153,233.5117,83.8999,276.2135,2.2483e-05,7e-07,0.0,0 STARLINK-5024,1 53901U 22119R   24017.89920526  .00000070  00000-0  22483-4 0  9998,2 53901  53.2153 233.5117 0001244  83.8999 276.2135 15.08833044 73662,6917.902,95.438,540.627,538.906,0.0
53901.0,STARLINK-5024,PAYLOAD,2024-01-18 19:50:14,15.08842044,0.0001196,53.215,229.3484,83.3182,276.7947,8.3611e-05,1.043e-05,0.0,0 STARLINK-5024,1 53901U 22119R   24018.82656084  .00001043  00000-0  83611-4 0  9998,2 53901  53.2150 229.3484 0001196  83.3182 276.7947 15.08842044 73389,6917.874,95.437,540.567,538.912,0.0
53901.0,STARLINK-5024,PAYLOAD,2024-01-18 21:25:37,15.08842243,0.0001308,53.2151,229.0515,79.8885,280.2255,8.7294e-05,1.102e-05,0.0,0 STARLINK-5024,1 53901U 22119R   24018.89280085  .00001102  00000-0  87294-4 0  9996,2 53901  53.2151 229.0515 0001308  79.8885 280.2255 15.08842243 73818,6917.874,95.437,540.643,538.834,0.0
53901.0,STARLINK-5024,PAYLOAD,2024-01-19 13:19:29,15.08840654,0.0001335,53.2156,226.0756,85.4557,274.6588,0.00011592,1.557e-05,0.0,0 STARLINK-5024,1 53901U 22119R   24019.55520162  .00001557  00000-0  11592-3 0  9994,2 53901  53.2156 226.0756 0001335  85.4557 274.6588 15.08840654 73917,6917.878,95.438,540.667,538.82,0.0
53901.0,STARLINK-5024,PAYLOAD,2024-01-19 19:41:01,15.08843448,0.0001325,53.2154,224.8869,85.0833,275.0311,0.00013413,1.848e-05,0.0,0 STARLINK-5024,1 53901U 22119R   24019.82015923  .00001848  00000-0  13413-3 0  9995,2 53901  53.2154 224.8869 0001325  85.0833 275.0311 15.08843448 73955,6917.87,95.437,540.651,538.818,0.0
53901.0,STARLINK-5024,PAYLOAD,2024-01-20 13:10:16,15.08844069,0.0001392,53.2153,221.617,84.76,275.3551,2.8323e-05,1.63e-06,0.0,0 STARLINK-5024,1 53901U 22119R   24020.54880201  .00000163  00000-0  28323-4 0  9991,2 53901  53.2153 221.6170 0001392  84.7600 275.3551 15.08844069 74068,6917.868,95.437,540.696,538.77,0.0
53901.0,STARLINK-5024,PAYLOAD,2024-01-20 19:31:49,15.08841109,0.000138,53.2156,220.4268,85.7512,274.3637,-1.684e-06,-3.15e-06,0.0,0 STARLINK-5024,1 53901U 22119R   24020.81376405 -.00000315  00000-0 -16840-5 0  9990,2 53901  53.2156 220.4268 0001380  85.7512 274.3637 15.08841109 73689,6917.877,95.437,540.697,538.787,0.0
53901.0,STARLINK-5024,PAYLOAD,2024-01-20 22:42:35,15.08842256,0.0001375,53.2155,219.8318,86.7486,273.3663,6.371e-06,-1.87e-06,0.0,0 STARLINK-5024,1 53901U 22119R   24020.94624258 -.00000187  00000-0  63710-5 0  9990,2 53901  53.2155 219.8318 0001375  86.7486 273.3663 15.08842256 74123,6917.873,95.437,540.69,538.787,0.0
53901.0,STARLINK-5024,PAYLOAD,2024-01-21 22:33:21,15.08847909,0.0001364,53.2158,215.3707,96.6551,263.4596,7.2484e-05,8.66e-06,0.0,0 STARLINK-5024,1 53901U 22119R   24021.93983378  .00000866  00000-0  72484-4 0  9991,2 53901  53.2158 215.3707 0001364  96.6551 263.4596 15.08847909 74271,6917.856,95.437,540.665,538.778,0.0
53901.0,STARLINK-5024,PAYLOAD,2024-01-22 17:37:58,15.08850809,0.0001352,53.2159,211.8012,81.3685,278.746,0.00013508,1.863e-05,0.0,0 STARLINK-5024,1 53901U 22119R   24022.73470827  .00001863  00000-0  13508-3 0  9999,2 53901  53.2159 211.8012 0001352  81.3685 278.7460 15.08850809 74393,6917.847,95.437,540.648,538.777,0.0
53901.0,STARLINK-5024,PAYLOAD,2024-01-23 03:10:19,15.08826801,0.0001312,53.2159,210.0166,94.4679,265.6463,-6.8009e-05,-1.37e-05,0.0,0 STARLINK-5024,1 53901U 22119R   24023.13216688 -.00001370  00000-0 -68009-4 0  9999,2 53901  53.2159 210.0166 0001312  94.4679 265.6463 15.08826801 74032,6917.921,95.438,540.693,538.878,0.0
53901.0,STARLINK-5024,PAYLOAD,2024-01-23 15:53:24,15.08833383,0.0001328,53.2158,207.6381,90.1686,269.9458,-4.9642e-05,-1.078e-05,0.0,0 STARLINK-5024,1 53901U 22119R   24023.66208640 -.00001078  00000-0 -49642-4 0  9993,2 53901  53.2158 207.6381 0001328  90.1686 269.9458 15.08833383 74113,6917.901,95.438,540.684,538.847,0.0
53901.0,STARLINK-5024,PAYLOAD,2024-01-23 20:39:33,15.08834156,0.0001314,53.216,206.7459,90.8765,269.2377,-3.9881e-05,-9.22e-06,0.0,0 STARLINK-5024,1 53901U 22119R   24023.86080570 -.00000922  00000-0 -39881-4 0  9996,2 53901  53.2160 206.7459 0001314  90.8765 269.2377 15.08834156 74563,6917.898,95.438,540.672,538.854,0.0
53901.0,STARLINK-5024,PAYLOAD,2024-01-24 10:58:01,15.08838026,0.0001326,53.2148,204.0697,87.1027,273.0117,7.0996e-06,-1.75e-06,0.0,0 STARLINK-5024,1 53901U 22119R   24024.45696180 -.00000175  00000-0  70996-5 0  9994,2 53901  53.2148 204.0697 0001326  87.1027 273.0117 15.08838026 74236,6917.886,95.438,540.669,538.834,0.0
53901.0,STARLINK-5024,PAYLOAD,2024-01-24 14:08:47,15.08841421,0.0001312,53.2148,203.4751,88.7546,271.3597,-6.758e-06,-3.95e-06,0.0,0 STARLINK-5024,1 53901U 22119R   24024.58944076 -.00000395  00000-0 -67580-5 0  9998,2 53901  53.2148 203.4751 0001312  88.7546 271.3597 15.08841421 74672,6917.876,95.437,540.649,538.833,0.0
53901.0,STARLINK-5024,PAYLOAD,2024-01-24 22:05:43,15.08844493,0.0001316,53.2146,201.9885,89.8923,270.222,0.00024384,3.595e-05,0.0,0 STARLINK-5024,1 53901U 22119R   24024.92064131  .00003595  00000-0  24384-3 0  9997,2 53901  53.2146 201.9885 0001316  89.8923 270.2220 15.08844493 74725,6917.867,95.437,540.642,538.821,0.0
53901.0,STARLINK-5024,PAYLOAD,2024-01-25 18:45:44,15.08843736,0.0001259,53.2145,198.1225,89.6184,270.4953,0.00030213,4.524e-05,0.0,0 STARLINK-5024,1 53901U 22119R   24025.78176517  .00004524  00000-0  30213-3 0  9995,2 53901  53.2145 198.1225 0001259  89.6184 270.4953 15.08843736 74434,6917.869,95.437,540.605,538.863,0.0
53901.0,STARLINK-5024,PAYLOAD,2024-01-26 18:36:31,15.08841263,0.0001253,53.2148,193.6621,87.6507,272.4628,0.0001186,1.6e-05,0.0,0 STARLINK-5024,1 53901U 22119R   24026.77536760  .00001600  00000-0  11860-3 0  9994,2 53901  53.2148 193.6621 0001253  87.6507 272.4628 15.08841263 74588,6917.877,95.437,540.608,538.875,0.0
53901.0,STARLINK-5024,PAYLOAD,2024-01-27 10:30:23,15.08843374,0.0001244,53.2148,190.6874,88.7995,271.314,0.00017064,2.429e-05,0.0,0 STARLINK-5024,1 53901U 22119R   24027.43776733  .00002429  00000-0  17064-3 0  9996,2 53901  53.2148 190.6874 0001244  88.7995 271.3140 15.08843374 75109,6917.87,95.437,540.596,538.874,0.0
53901.0,STARLINK-5024,PAYLOAD,2024-01-27 20:02:41,15.08852278,0.0001339,53.215,188.9044,77.6825,282.4317,0.00026569,3.944e-05,0.0,0 STARLINK-5024,1 53901U 22119R   24027.83520273  .00003944  00000-0  26569-3 0  9999,2 53901  53.2150 188.9044 0001339  77.6825 282.4317 15.08852278 74746,6917.843,95.437,540.634,538.782,0.0
53901.0,STARLINK-5024,PAYLOAD,2024-01-28 10:21:10,15.08840138,0.0001277,53.2149,186.2278,95.7864,264.3274,7.6035e-05,9.22e-06,0.0,0 STARLINK-5024,1 53901U 22119R   24028.43136803  .00000922  00000-0  76035-4 0  9995,2 53901  53.2149 186.2278 0001277  95.7864 264.3274 15.08840138 74832,6917.88,95.438,540.628,538.862,0.0
53901.0,STARLINK-5024,PAYLOAD,2024-01-28 19:53:28,15.08843616,0.0001301,53.2151,184.4435,94.7596,265.3545,0.00012533,1.707e-05,0.0,0 STARLINK-5024,1 53901U 22119R   24028.82880676  .00001707  00000-0  12533-3 0  9996,2 53901  53.2151 184.4435 0001301  94.7596 265.3545 15.08843616 75319,6917.869,95.437,540.634,538.834,0.0
53901.0,STARLINK-5024,PAYLOAD,2024-01-29 19:44:15,15.08850225,0.0001298,53.2159,179.9819,105.7815,254.332,0.00014271,1.985e-05,0.0,0 STARLINK-5024,1 53901U 22119R   24029.82240099  .00001985  00000-0  14271-3 0  9995,2 53901  53.2159 179.9819 0001298 105.7815 254.3320 15.08850225 75047,6917.849,95.437,540.612,538.816,0.0
53901.0,STARLINK-5024,PAYLOAD,2024-01-30 10:02:44,15.08837033,0.0001444,53.2154,177.3064,81.2851,278.8305,2.8157e-05,1.6e-06,0.0,0 STARLINK-5024,1 53901U 22119R   24030.41856942  .00000160  00000-0  28157-4 0  9995,2 53901  53.2154 177.3064 0001444  81.2851 278.8305 15.08837033 75133,6917.889,95.438,540.753,538.756,0.0
53901.0,STARLINK-5024,PAYLOAD,2024-01-30 14:48:53,15.08837348,0.0001332,53.2157,176.4141,87.9803,272.1342,1.5503e-05,-4.1e-07,0.0,0 STARLINK-5024,1 53901U 22119R   24030.61728864 -.00000041  00000-0  15503-4 0  9998,2 53901  53.2157 176.4141 0001332  87.9803 272.1342 15.08837348 75584,6917.888,95.438,540.675,538.832,0.0
53901.0,STARLINK-5024,PAYLOAD,2024-01-30 16:24:16,15.08838521,0.000135,53.2168,176.117,90.3698,269.7449,3.8933e-05,3.32e-06,0.0,0 STARLINK-5024,1 53901U 22119R   24030.68352935  .00000332  00000-0  38933-4 0  9991,2 53901  53.2168 176.1170 0001350  90.3698 269.7449 15.08838521 75590,6917.885,95.438,540.684,538.816,0.0
53901.0,STARLINK-5024,PAYLOAD,2024-02-01 09:44:18,15.08834376,0.0001384,53.2178,168.388,93.9875,266.1275,8.3738e-05,1.045e-05,0.0,0 STARLINK-5024,1 53901U 22119R   24032.40577463  .00001045  00000-0  83738-4 0  9993,2 53901  53.2178 168.3880 0001384  93.9875 266.1275 15.08834376 75430,6917.898,95.438,540.72,538.805,0.0
53901.0,STARLINK-5024,PAYLOAD,2024-02-01 16:05:51,15.08837933,0.0001343,53.2174,167.1968,92.736,267.3786,0.00010054,1.312e-05,0.0,0 STARLINK-5024,1 53901U 22119R   24032.67073292  .00001312  00000-0  10054-3 0  9990,2 53901  53.2174 167.1968 0001343  92.7360 267.3786 15.08837933 75893,6917.887,95.438,540.681,538.823,0.0
53901.0,STARLINK-5024,PAYLOAD,2024-02-02 14:21:15,15.08842921,0.0001356,53.2194,163.0295,93.7959,266.3188,0.00010834,1.437e-05,0.0,0 STARLINK-5024,1 53901U 22119R   24033.59809097  .00001437  00000-0  10834-3 0  9996,2 53901  53.2194 163.0295 0001356  93.7959 266.3188 15.08842921 76037,6917.871,95.437,540.675,538.798,0.0
